TIANMU-1 08             
1 57400U 23101B   26066.00237819  .00000346  00000+0  14775-4 0  9993
2 57400  97.2717 118.7901 0006380 134.2174 225.9592 15.29204229146020
STARLINK-31217          
1 59036U 24038P   26067.99010758  .00010281  00000+0  37774-3 0  9992
2 59036  43.0013 293.1531 0001104 271.0681  89.0045 15.28001451115832
